{
    "satellites": [
        {
            "name": "starlink353",
            "title": "Starlink-353 (G6-103)",
            "tle": [
                "1 67829C 26033J   26055.10673611 -.01892700  00000+0 -72082-2 0   551",
                "2 67829  42.9993 354.7327 0001513 258.5391  36.7288 15.88452747    10"
            ],
            "stdMag": 5,
            "noradId": "67829",
            "tleUrl": "http://celestrak.org/NORAD/elements/supplemental/sup-gp.php?FILE=starlink&FORMAT=tle",
            "launchDate": "2026-02-16T07:59:40.000Z",
            "active": true,
            "batch": [
                {
                    "noradId": "67829",
                    "tle": [
                        "1 67829C 26033J   26055.10673611 -.01892700  00000+0 -72082-2 0   551",
                        "2 67829  42.9993 354.7327 0001513 258.5391  36.7288 15.88452747    10"
                    ]
                },
                {
                    "noradId": "67827",
                    "tle": [
                        "1 67827C 26033G   26055.10604167 -.01900000  00000+0 -73691-2 0   559",
                        "2 67827  42.9990 354.7530 0001442 256.9965  27.9979 15.88087576    14"
                    ]
                },
                {
                    "noradId": "67847",
                    "tle": [
                        "1 67847C 26033AC  26055.10048611 -.00167260  00000+0 -24028-3 0   550",
                        "2 67847  42.9918 354.3013 0002164 250.9018 193.0743 16.04574206    17"
                    ]
                },
                {
                    "noradId": "67826",
                    "tle": [
                        "1 67826C 26033F   26055.10812500 -.01900100  00000+0 -74382-2 0   559",
                        "2 67826  42.9992 354.7482 0001508 257.4257  36.2536 15.87898041    12"
                    ]
                },
                {
                    "noradId": "67849",
                    "tle": [
                        "1 67849C 26033AE  26055.10881944 -.01763900  00000+0 -57203-2 0   550",
                        "2 67849  42.9993 354.5914 0001559 260.8986  96.9097 15.91537651    16"
                    ]
                },
                {
                    "noradId": "67848",
                    "tle": [
                        "1 67848C 26033AD  26055.10187500 -.01773000  00000+0 -57921-2 0   555",
                        "2 67848  42.9993 354.6412 0001505 257.9290  57.4901 15.91402544    13"
                    ]
                },
                {
                    "noradId": "67846",
                    "tle": [
                        "1 67846C 26033AB  26055.10187500 -.01783900  00000+0 -58796-2 0   554",
                        "2 67846  42.9993 354.6478 0001532 259.9727  52.9218 15.91239350    14"
                    ]
                },
                {
                    "noradId": "67845",
                    "tle": [
                        "1 67845C 26033AA  26055.10465278 -.01791400  00000+0 -59582-2 0   552",
                        "2 67845  42.9994 354.6370 0001496 258.5328  67.6597 15.91067306    19"
                    ]
                },
                {
                    "noradId": "67844",
                    "tle": [
                        "1 67844C 26033Z   26055.10465278 -.01805400  00000+0 -60616-2 0   557",
                        "2 67844  42.9995 354.6435 0001567 260.3589  63.3776 15.90895836    18"
                    ]
                },
                {
                    "noradId": "67843",
                    "tle": [
                        "1 67843C 26033Y   26055.10812500 -.01820200  00000+0 -61733-2 0   556",
                        "2 67843  42.9997 354.6283 0001554 262.1299  79.0076 15.90710410    15"
                    ]
                },
                {
                    "noradId": "67842",
                    "tle": [
                        "1 67842C 26033X   26055.10465278 -.01824700  00000+0 -62371-2 0   559",
                        "2 67842  42.9994 354.6570 0001521 258.7146  59.7229 15.90559243    16"
                    ]
                },
                {
                    "noradId": "67841",
                    "tle": [
                        "1 67841C 26033W   26055.10326389 -.01823500  00000+0 -62817-2 0   559",
                        "2 67841  42.9995 354.6731 0001540 259.3473  48.1971 15.90402960    15"
                    ]
                },
                {
                    "noradId": "67840",
                    "tle": [
                        "1 67840C 26033V   26055.10673611 -.01836300  00000+0 -63889-2 0   553",
                        "2 67840  42.9994 354.6582 0001502 260.9686  63.8071 15.90218677    14"
                    ]
                },
                {
                    "noradId": "67839",
                    "tle": [
                        "1 67839C 26033U   26055.10326389 -.01837500  00000+0 -64431-2 0   555",
                        "2 67839  42.9994 354.6870 0001478 257.0456  44.9212 15.90064291    14"
                    ]
                },
                {
                    "noradId": "67838",
                    "tle": [
                        "1 67838C 26033T   26055.10673611 -.01849800  00000+0 -65516-2 0   558",
                        "2 67838  42.9994 354.6723 0001575 259.9911  59.1452 15.89875177    10"
                    ]
                },
                {
                    "noradId": "67837",
                    "tle": [
                        "1 67837C 26033S   26055.10256944 -.01852100  00000+0 -66107-2 0   557",
                        "2 67837  42.9995 354.7059 0001504 258.4987  33.7924 15.89722757    19"
                    ]
                },
                {
                    "noradId": "67836",
                    "tle": [
                        "1 67836C 26033R   26055.10187500 -.01854100  00000+0 -66710-2 0   559",
                        "2 67836  42.9993 354.7179 0001447 258.9813  26.2648 15.89564490    16"
                    ]
                },
                {
                    "noradId": "67835",
                    "tle": [
                        "1 67835C 26033Q   26055.10395833 -.01861300  00000+0 -67642-2 0   553",
                        "2 67835  42.9993 354.7120 0001504 259.3984  34.9697 15.89370489    12"
                    ]
                },
                {
                    "noradId": "67834",
                    "tle": [
                        "1 67834C 26033P   26055.10951389 -.01869100  00000+0 -68639-2 0   559",
                        "2 67834  42.9993 354.6851 0001577 260.9549  62.3462 15.89166528    18"
                    ]
                },
                {
                    "noradId": "67832",
                    "tle": [
                        "1 67832C 26033M   26055.10187500 -.01033500  00000+0 -23129-2 0   555",
                        "2 67832  42.9986 354.4403 0001768 267.9373 126.6044 15.97796707    10"
                    ]
                },
                {
                    "noradId": "67833",
                    "tle": [
                        "1 67833C 26033N   26055.10951389 -.01873800  00000+0 -69419-2 0   557",
                        "2 67833  42.9993 354.6928 0001555 259.8596  60.3934 15.88994154    12"
                    ]
                },
                {
                    "noradId": "67831",
                    "tle": [
                        "1 67831C 26033L   26055.10118056 -.01874700  00000+0 -69925-2 0   553",
                        "2 67831  42.9990 354.7522 0001443 258.4493  10.9196 15.88857360    13"
                    ]
                },
                {
                    "noradId": "67830",
                    "tle": [
                        "1 67830C 26033K   26055.10118056 -.01887100  00000+0 -71131-2 0   552",
                        "2 67830  42.9993 354.7594 0001428 256.1591  10.3682 15.88657489    15"
                    ]
                },
                {
                    "noradId": "67828",
                    "tle": [
                        "1 67828C 26033H   26055.10812500 -.01893700  00000+0 -72779-2 0   556",
                        "2 67828  42.9991 354.7322 0001486 255.9340  44.1077 15.88268055    12"
                    ]
                },
                {
                    "noradId": "67825",
                    "tle": [
                        "1 67825C 26033E   26055.11020833 -.01919100  00000+0 -76044-2 0   556",
                        "2 67825  42.9991 354.7427 0001444 259.6023  43.0820 15.87668475    11"
                    ]
                },
                {
                    "noradId": "67824",
                    "tle": [
                        "1 67824C 26033D   26055.10465278 -.01926300  00000+0 -77047-2 0   554",
                        "2 67824  42.9989 354.7849 0001371 252.7886  14.9578 15.87483476    18"
                    ]
                },
                {
                    "noradId": "67823",
                    "tle": [
                        "1 67823C 26033C   26055.10743056 -.01944700  00000+0 -78754-2 0   556",
                        "2 67823  42.9991 354.7755 0001402 255.3413  25.2719 15.87246363    10"
                    ]
                },
                {
                    "noradId": "67822",
                    "tle": [
                        "1 67822C 26033B   26055.10951389 -.01947500  00000+0 -79665-2 0   558",
                        "2 67822  42.9990 354.7710 0001447 256.7561  32.4507 15.87041703    13"
                    ]
                },
                {
                    "noradId": "67821",
                    "tle": [
                        "1 67821C 26033A   26055.10812500 -.01970300  00000+0 -81656-2 0   555",
                        "2 67821  42.9990 354.7872 0001388 259.6665  18.5846 15.86794373    10"
                    ]
                }
            ]
        }
    ],
    "config": {}
}